STARLINK-37190
1 68396U 26063S   26104.84300802  .00230375  00000+0  11668-2 0  9990
2 68396  97.2828 246.4189 0000670  92.1278 268.0067 15.80913442  3331
STARLINK-37194
1 68397U 26063T   26104.84150970  .00170277  00000+0  87031-3 0  9992
2 68397  97.2832 246.4217 0001372  78.1792 281.9630 15.80870020  3338
STARLINK-37220
1 68398U 26063U   26104.84009079 -.00591342  00000+0 -33992-2 0  9994
2 68398  97.2831 246.4235 0001192  53.5563 306.5814 15.80173485  3330
STARLINK-37187
1 68399U 26063V   26104.84075375  .00207789  00000+0  10554-2 0  9993
2 68399  97.2831 246.4223 0000748  84.3158 275.8196 15.80909093  3339
STARLINK-36235
1 68400U 26063W   26104.83925362  .00172318  00000+0  87983-3 0  9995
2 68400  97.2832 246.4240 0002147  68.1106 292.0390 15.80886357  3334
STARLINK-37175
1 68401U 26063X   26104.83335647 -.00064227  00000+0 -43299-3 0  9990
2 68401  97.2841 246.3961 0001061  96.7367 180.2495 15.75189640  4277
STARLINK-36360
1 68402U 26063Y   26104.83775079  .00097802  00000+0  50465-3 0  9994
2 68402  97.2835 246.4262 0001344  77.9536 282.1883 15.80858445  3330
STARLINK-37218
1 68403U 26063Z   26104.83624851  .00087693  00000+0  45324-3 0  9991
2 68403  97.2836 246.4295 0001491  88.8696 271.2743 15.80850851  3336
STARLINK-37188
1 68404U 26063AA  26104.83699821  .00091301  00000+0  47156-3 0  9997
2 68404  97.2835 246.4275 0001331  82.0965 278.0454 15.80855966  3338
SHIYAN-33
1 68405U 26064A   26104.74302534  .00002923  00000+0  12582-3 0  9998
2 68405  97.4647 180.5935 0014718 163.8280 196.3429 15.23331154  2837
LPNTSAT-001 (IOD-1)
1 68408U 26065A   26104.61486071  .00001605  00000+0  81299-4 0  9995
2 68408  97.4110 346.4505 0015874 221.3241 138.6793 15.18323529  2612
LPNTSAT-002 (IOD-2)
1 68409U 26065B   26104.61448153  .00003931  00000+0  19387-3 0  9997
2 68409  97.4098 346.4485 0012998 215.7869 144.2495 15.18428199  2590
XINZHENGCHENG-01
1 68412U 26066A   26104.89777883  .00000392  00000+0  38803-4 0  9990
2 68412  84.9624 268.0104 0027491 112.3327 248.0814 14.88350698  2314
ELECTRON KICK STAGE R/B
1 68411U 26065D   26104.87728248  .03857778  25906-5  84549-3 0  9993
2 68411  97.4012 348.7439 0055488 312.8497  46.8139 16.25902677  2791
2026-066C
1 68414U 26066C   26104.89654752  .00000756  00000+0  77571-4 0  9990
2 68414  84.9623 268.0093 0028085 113.1526 247.2661 14.88511055  2319
2026-066D
1 68415U 26066D   26104.89725200  .00000883  00000+0  91361-4 0  9992
2 68415  84.9623 268.0099 0027493 112.8694 247.5436 14.88425964  2316
