[{"OBJECT_NAME":"STARLINK-37190","OBJECT_ID":"2026-063S","EPOCH":"2026-04-14T20:13:55.892928","MEAN_MOTION":15.80913442,"ECCENTRICITY":6.7e-5,"INCLINATION":97.2828,"RA_OF_ASC_NODE":246.4189,"ARG_OF_PERICENTER":92.1278,"MEAN_ANOMALY":268.0067,"EPHEMERIS_TYPE":0,"CLASSIFICATION_TYPE":"U","NORAD_CAT_ID":68396,"ELEMENT_SET_NO":999,"REV_AT_EPOCH":333,"BSTAR":0.0011668,"MEAN_MOTION_DOT":0.00230375,"MEAN_MOTION_DDOT":0},{"OBJECT_NAME":"STARLINK-37194","OBJECT_ID":"2026-063T","EPOCH":"2026-04-14T20:11:46.438080","MEAN_MOTION":15.8087002,"ECCENTRICITY":0.0001372,"INCLINATION":97.2832,"RA_OF_ASC_NODE":246.4217,"ARG_OF_PERICENTER":78.1792,"MEAN_ANOMALY":281.963,"EPHEMERIS_TYPE":0,"CLASSIFICATION_TYPE":"U","NORAD_CAT_ID":68397,"ELEMENT_SET_NO":999,"REV_AT_EPOCH":333,"BSTAR":0.00087031,"MEAN_MOTION_DOT":0.00170277,"MEAN_MOTION_DDOT":0},{"OBJECT_NAME":"STARLINK-37220","OBJECT_ID":"2026-063U","EPOCH":"2026-04-14T20:09:43.844256","MEAN_MOTION":15.80173485,"ECCENTRICITY":0.0001192,"INCLINATION":97.2831,"RA_OF_ASC_NODE":246.4235,"ARG_OF_PERICENTER":53.5563,"MEAN_ANOMALY":306.5814,"EPHEMERIS_TYPE":0,"CLASSIFICATION_TYPE":"U","NORAD_CAT_ID":68398,"ELEMENT_SET_NO":999,"REV_AT_EPOCH":333,"BSTAR":-0.0033992,"MEAN_MOTION_DOT":-0.00591342,"MEAN_MOTION_DDOT":0},{"OBJECT_NAME":"STARLINK-37187","OBJECT_ID":"2026-063V","EPOCH":"2026-04-14T20:10:41.124000","MEAN_MOTION":15.80909093,"ECCENTRICITY":7.48e-5,"INCLINATION":97.2831,"RA_OF_ASC_NODE":246.4223,"ARG_OF_PERICENTER":84.3158,"MEAN_ANOMALY":275.8196,"EPHEMERIS_TYPE":0,"CLASSIFICATION_TYPE":"U","NORAD_CAT_ID":68399,"ELEMENT_SET_NO":999,"REV_AT_EPOCH":333,"BSTAR":0.0010554,"MEAN_MOTION_DOT":0.00207789,"MEAN_MOTION_DDOT":0},{"OBJECT_NAME":"STARLINK-36235","OBJECT_ID":"2026-063W","EPOCH":"2026-04-14T20:08:31.512768","MEAN_MOTION":15.80886357,"ECCENTRICITY":0.0002147,"INCLINATION":97.2832,"RA_OF_ASC_NODE":246.424,"ARG_OF_PERICENTER":68.1106,"MEAN_ANOMALY":292.039,"EPHEMERIS_TYPE":0,"CLASSIFICATION_TYPE":"U","NORAD_CAT_ID":68400,"ELEMENT_SET_NO":999,"REV_AT_EPOCH":333,"BSTAR":0.00087983,"MEAN_MOTION_DOT":0.00172318,"MEAN_MOTION_DDOT":0},{"OBJECT_NAME":"STARLINK-37175","OBJECT_ID":"2026-063X","EPOCH":"2026-04-14T20:00:01.999008","MEAN_MOTION":15.7518964,"ECCENTRICITY":0.0001061,"INCLINATION":97.2841,"RA_OF_ASC_NODE":246.3961,"ARG_OF_PERICENTER":96.7367,"MEAN_ANOMALY":180.2495,"EPHEMERIS_TYPE":0,"CLASSIFICATION_TYPE":"U","NORAD_CAT_ID":68401,"ELEMENT_SET_NO":999,"REV_AT_EPOCH":427,"BSTAR":-0.00043299,"MEAN_MOTION_DOT":-0.00064227,"MEAN_MOTION_DDOT":0},{"OBJECT_NAME":"STARLINK-36360","OBJECT_ID":"2026-063Y","EPOCH":"2026-04-14T20:06:21.668256","MEAN_MOTION":15.80858445,"ECCENTRICITY":0.0001344,"INCLINATION":97.2835,"RA_OF_ASC_NODE":246.4262,"ARG_OF_PERICENTER":77.9536,"MEAN_ANOMALY":282.1883,"EPHEMERIS_TYPE":0,"CLASSIFICATION_TYPE":"U","NORAD_CAT_ID":68402,"ELEMENT_SET_NO":999,"REV_AT_EPOCH":333,"BSTAR":0.00050465,"MEAN_MOTION_DOT":0.00097802,"MEAN_MOTION_DDOT":0},{"OBJECT_NAME":"STARLINK-37218","OBJECT_ID":"2026-063Z","EPOCH":"2026-04-14T20:04:11.871264","MEAN_MOTION":15.80850851,"ECCENTRICITY":0.0001491,"INCLINATION":97.2836,"RA_OF_ASC_NODE":246.4295,"ARG_OF_PERICENTER":88.8696,"MEAN_ANOMALY":271.2743,"EPHEMERIS_TYPE":0,"CLASSIFICATION_TYPE":"U","NORAD_CAT_ID":68403,"ELEMENT_SET_NO":999,"REV_AT_EPOCH":333,"BSTAR":0.00045324,"MEAN_MOTION_DOT":0.00087693,"MEAN_MOTION_DDOT":0},{"OBJECT_NAME":"STARLINK-37188","OBJECT_ID":"2026-063AA","EPOCH":"2026-04-14T20:05:16.645344","MEAN_MOTION":15.80855966,"ECCENTRICITY":0.0001331,"INCLINATION":97.2835,"RA_OF_ASC_NODE":246.4275,"ARG_OF_PERICENTER":82.0965,"MEAN_ANOMALY":278.0454,"EPHEMERIS_TYPE":0,"CLASSIFICATION_TYPE":"U","NORAD_CAT_ID":68404,"ELEMENT_SET_NO":999,"REV_AT_EPOCH":333,"BSTAR":0.00047156,"MEAN_MOTION_DOT":0.00091301,"MEAN_MOTION_DDOT":0},{"OBJECT_NAME":"SHIYAN-33","OBJECT_ID":"2026-064A","EPOCH":"2026-04-14T17:49:57.389376","MEAN_MOTION":15.23331154,"ECCENTRICITY":0.0014718,"INCLINATION":97.4647,"RA_OF_ASC_NODE":180.5935,"ARG_OF_PERICENTER":163.828,"MEAN_ANOMALY":196.3429,"EPHEMERIS_TYPE":0,"CLASSIFICATION_TYPE":"U","NORAD_CAT_ID":68405,"ELEMENT_SET_NO":999,"REV_AT_EPOCH":283,"BSTAR":0.00012582,"MEAN_MOTION_DOT":2.923e-5,"MEAN_MOTION_DDOT":0},{"OBJECT_NAME":"LPNTSAT-001 (IOD-1)","OBJECT_ID":"2026-065A","EPOCH":"2026-04-14T14:45:23.965344","MEAN_MOTION":15.18323529,"ECCENTRICITY":0.0015874,"INCLINATION":97.411,"RA_OF_ASC_NODE":346.4505,"ARG_OF_PERICENTER":221.3241,"MEAN_ANOMALY":138.6793,"EPHEMERIS_TYPE":0,"CLASSIFICATION_TYPE":"U","NORAD_CAT_ID":68408,"ELEMENT_SET_NO":999,"REV_AT_EPOCH":261,"BSTAR":8.1299e-5,"MEAN_MOTION_DOT":1.605e-5,"MEAN_MOTION_DDOT":0},{"OBJECT_NAME":"LPNTSAT-002 (IOD-2)","OBJECT_ID":"2026-065B","EPOCH":"2026-04-14T14:44:51.204192","MEAN_MOTION":15.18428199,"ECCENTRICITY":0.0012998,"INCLINATION":97.4098,"RA_OF_ASC_NODE":346.4485,"ARG_OF_PERICENTER":215.7869,"MEAN_ANOMALY":144.2495,"EPHEMERIS_TYPE":0,"CLASSIFICATION_TYPE":"U","NORAD_CAT_ID":68409,"ELEMENT_SET_NO":999,"REV_AT_EPOCH":259,"BSTAR":0.00019387,"MEAN_MOTION_DOT":3.931e-5,"MEAN_MOTION_DDOT":0},{"OBJECT_NAME":"ELECTRON KICK STAGE R/B","OBJECT_ID":"2026-065D","EPOCH":"2026-04-14T21:03:17.206272","MEAN_MOTION":16.25902677,"ECCENTRICITY":0.0055488,"INCLINATION":97.4012,"RA_OF_ASC_NODE":348.7439,"ARG_OF_PERICENTER":312.8497,"MEAN_ANOMALY":46.8139,"EPHEMERIS_TYPE":0,"CLASSIFICATION_TYPE":"U","NORAD_CAT_ID":68411,"ELEMENT_SET_NO":999,"REV_AT_EPOCH":279,"BSTAR":0.00084549,"MEAN_MOTION_DOT":0.03857778,"MEAN_MOTION_DDOT":2.5906e-6},{"OBJECT_NAME":"XINZHENGCHENG-01","OBJECT_ID":"2026-066A","EPOCH":"2026-04-14T21:32:48.090912","MEAN_MOTION":14.88350698,"ECCENTRICITY":0.0027491,"INCLINATION":84.9624,"RA_OF_ASC_NODE":268.0104,"ARG_OF_PERICENTER":112.3327,"MEAN_ANOMALY":248.0814,"EPHEMERIS_TYPE":0,"CLASSIFICATION_TYPE":"U","NORAD_CAT_ID":68412,"ELEMENT_SET_NO":999,"REV_AT_EPOCH":231,"BSTAR":3.8803e-5,"MEAN_MOTION_DOT":3.92e-6,"MEAN_MOTION_DDOT":0},{"OBJECT_NAME":"2026-066C","OBJECT_ID":"2026-066C","EPOCH":"2026-04-14T21:31:01.705728","MEAN_MOTION":14.88511055,"ECCENTRICITY":0.0028085,"INCLINATION":84.9623,"RA_OF_ASC_NODE":268.0093,"ARG_OF_PERICENTER":113.1526,"MEAN_ANOMALY":247.2661,"EPHEMERIS_TYPE":0,"CLASSIFICATION_TYPE":"U","NORAD_CAT_ID":68414,"ELEMENT_SET_NO":999,"REV_AT_EPOCH":231,"BSTAR":7.7571e-5,"MEAN_MOTION_DOT":7.56e-6,"MEAN_MOTION_DDOT":0},{"OBJECT_NAME":"2026-066D","OBJECT_ID":"2026-066D","EPOCH":"2026-04-14T21:32:02.572800","MEAN_MOTION":14.88425964,"ECCENTRICITY":0.0027493,"INCLINATION":84.9623,"RA_OF_ASC_NODE":268.0099,"ARG_OF_PERICENTER":112.8694,"MEAN_ANOMALY":247.5436,"EPHEMERIS_TYPE":0,"CLASSIFICATION_TYPE":"U","NORAD_CAT_ID":68415,"ELEMENT_SET_NO":999,"REV_AT_EPOCH":231,"BSTAR":9.1361e-5,"MEAN_MOTION_DOT":8.83e-6,"MEAN_MOTION_DDOT":0}]
